[
  {
    "COMMENT": "GENERATED VIA SPACETRACK.ORG API",
    "ORIGINATOR": "18 SPCS",
    "NORAD_CAT_ID": "54754",
    "OBJECT_NAME": "SWOT",
    "OBJECT_TYPE": "PAYLOAD",
    "CLASSIFICATION_TYPE": "U",
    "INTLDES": "22173A",
    "EPOCH": "2023-05-22 22:23:18",
    "EPOCH_MICROSECONDS": "564000",
    "MEAN_MOTION": "14.09851123",
    "ECCENTRICITY": "0.0001036",
    "INCLINATION": "77.6061",
    "RA_OF_ASC_NODE": "109.9914",
    "ARG_OF_PERICENTER": "195.7902",
    "MEAN_ANOMALY": "164.3223",
    "EPHEMERIS_TYPE": "0",
    "ELEMENT_SET_NO": "999",
    "REV_AT_EPOCH": "2218",
    "BSTAR": "0.00013368",
    "MEAN_MOTION_DOT": "0.00000232",
    "MEAN_MOTION_DDOT": "0",
    "FILE": "3914964",
    "TLE_LINE0": "0 SWOT",
    "TLE_LINE1": "1 54754U 22173A   23142.93285375  .00000232  00000-0  13368-3 0  9995",
    "TLE_LINE2": "2 54754  77.6061 109.9914 0001036 195.7902 164.3223 14.09851123 22188",
    "OBJECT_ID": "2022-173A",
    "OBJECT_NUMBER": "54754",
    "SEMIMAJOR_AXIS": "7238.018",
    "PERIOD": "102.138",
    "APOGEE": "860.633",
    "PERIGEE": "859.133",
    "DECAYED": "0"
  },
  {
    "COMMENT": "GENERATED VIA SPACETRACK.ORG API",
    "ORIGINATOR": "18 SPCS",
    "NORAD_CAT_ID": "54754",
    "OBJECT_NAME": "SWOT",
    "OBJECT_TYPE": "PAYLOAD",
    "CLASSIFICATION_TYPE": "U",
    "INTLDES": "22173A",
    "EPOCH": "2023-05-23 01:47:41",
    "EPOCH_MICROSECONDS": "129376",
    "MEAN_MOTION": "14.09851175",
    "ECCENTRICITY": "0.0001034",
    "INCLINATION": "77.6062",
    "RA_OF_ASC_NODE": "109.7967",
    "ARG_OF_PERICENTER": "195.7904",
    "MEAN_ANOMALY": "164.322",
    "EPHEMERIS_TYPE": "0",
    "ELEMENT_SET_NO": "999",
    "REV_AT_EPOCH": "2220",
    "BSTAR": "0.00013373",
    "MEAN_MOTION_DOT": "0.00000232",
    "MEAN_MOTION_DDOT": "0",
    "FILE": "3915192",
    "TLE_LINE0": "0 SWOT",
    "TLE_LINE1": "1 54754U 22173A   23143.07478159  .00000232  00000-0  13373-3 0  9991",
    "TLE_LINE2": "2 54754  77.6062 109.7967 0001034 195.7904 164.3220 14.09851175 22202",
    "OBJECT_ID": "2022-173A",
    "OBJECT_NUMBER": "54754",
    "SEMIMAJOR_AXIS": "7238.018",
    "PERIOD": "102.138",
    "APOGEE": "860.631",
    "PERIGEE": "859.135",
    "DECAYED": "0"
  },
  {
    "COMMENT": "GENERATED VIA SPACETRACK.ORG API",
    "ORIGINATOR": "18 SPCS",
    "NORAD_CAT_ID": "54754",
    "OBJECT_NAME": "SWOT",
    "OBJECT_TYPE": "PAYLOAD",
    "CLASSIFICATION_TYPE": "U",
    "INTLDES": "22173A",
    "EPOCH": "2023-05-23 22:13:56",
    "EPOCH_MICROSECONDS": "519040",
    "MEAN_MOTION": "14.09851556",
    "ECCENTRICITY": "0.0001028",
    "INCLINATION": "77.6063",
    "RA_OF_ASC_NODE": "108.6283",
    "ARG_OF_PERICENTER": "194.8037",
    "MEAN_ANOMALY": "165.309",
    "EPHEMERIS_TYPE": "0",
    "ELEMENT_SET_NO": "999",
    "REV_AT_EPOCH": "2232",
    "BSTAR": "0.0001347",
    "MEAN_MOTION_DOT": "0.00000234",
    "MEAN_MOTION_DDOT": "0",
    "FILE": "3915766",
    "TLE_LINE0": "0 SWOT",
    "TLE_LINE1": "1 54754U 22173A   23143.92634860  .00000234  00000-0  13470-3 0  9998",
    "TLE_LINE2": "2 54754  77.6063 108.6283 0001028 194.8037 165.3090 14.09851556 22324",
    "OBJECT_ID": "2022-173A",
    "OBJECT_NUMBER": "54754",
    "SEMIMAJOR_AXIS": "7238.017",
    "PERIOD": "102.138",
    "APOGEE": "860.626",
    "PERIGEE": "859.138",
    "DECAYED": "0"
  },
  {
    "COMMENT": "GENERATED VIA SPACETRACK.ORG API",
    "ORIGINATOR": "18 SPCS",
    "NORAD_CAT_ID": "54754",
    "OBJECT_NAME": "SWOT",
    "OBJECT_TYPE": "PAYLOAD",
    "CLASSIFICATION_TYPE": "U",
    "INTLDES": "22173A",
    "EPOCH": "2023-05-24 03:20:30",
    "EPOCH_MICROSECONDS": "362784",
    "MEAN_MOTION": "14.09851628",
    "ECCENTRICITY": "0.0001028",
    "INCLINATION": "77.6063",
    "RA_OF_ASC_NODE": "108.3362",
    "ARG_OF_PERICENTER": "194.6367",
    "MEAN_ANOMALY": "165.476",
    "EPHEMERIS_TYPE": "0",
    "ELEMENT_SET_NO": "999",
    "REV_AT_EPOCH": "2235",
    "BSTAR": "0.00013376",
    "MEAN_MOTION_DOT": "0.00000233",
    "MEAN_MOTION_DDOT": "0",
    "FILE": "3916014",
    "TLE_LINE0": "0 SWOT",
    "TLE_LINE1": "1 54754U 22173A   23144.13924031  .00000233  00000-0  13376-3 0  9998",
    "TLE_LINE2": "2 54754  77.6063 108.3362 0001028 194.6367 165.4760 14.09851628 22351",
    "OBJECT_ID": "2022-173A",
    "OBJECT_NUMBER": "54754",
    "SEMIMAJOR_AXIS": "7238.016",
    "PERIOD": "102.138",
    "APOGEE": "860.626",
    "PERIGEE": "859.137",
    "DECAYED": "0"
  },
  {
    "COMMENT": "GENERATED VIA SPACETRACK.ORG API",
    "ORIGINATOR": "18 SPCS",
    "NORAD_CAT_ID": "54754",
    "OBJECT_NAME": "SWOT",
    "OBJECT_TYPE": "PAYLOAD",
    "CLASSIFICATION_TYPE": "U",
    "INTLDES": "22173A",
    "EPOCH": "2023-05-24 15:15:49",
    "EPOCH_MICROSECONDS": "327776",
    "MEAN_MOTION": "14.09851826",
    "ECCENTRICITY": "0.0001024",
    "INCLINATION": "77.6064",
    "RA_OF_ASC_NODE": "107.6546",
    "ARG_OF_PERICENTER": "194.3305",
    "MEAN_ANOMALY": "165.7823",
    "EPHEMERIS_TYPE": "0",
    "ELEMENT_SET_NO": "999",
    "REV_AT_EPOCH": "2242",
    "BSTAR": "0.00013014",
    "MEAN_MOTION_DOT": "0.00000226",
    "MEAN_MOTION_DDOT": "0",
    "FILE": "3916549",
    "TLE_LINE0": "0 SWOT",
    "TLE_LINE1": "1 54754U 22173A   23144.63598759  .00000226  00000-0  13014-3 0  9998",
    "TLE_LINE2": "2 54754  77.6064 107.6546 0001024 194.3305 165.7823 14.09851826 22424",
    "OBJECT_ID": "2022-173A",
    "OBJECT_NUMBER": "54754",
    "SEMIMAJOR_AXIS": "7238.016",
    "PERIOD": "102.138",
    "APOGEE": "860.622",
    "PERIGEE": "859.140",
    "DECAYED": "0"
  },
  {
    "COMMENT": "GENERATED VIA SPACETRACK.ORG API",
    "ORIGINATOR": "18 SPCS",
    "NORAD_CAT_ID": "54754",
    "OBJECT_NAME": "SWOT",
    "OBJECT_TYPE": "PAYLOAD",
    "CLASSIFICATION_TYPE": "U",
    "INTLDES": "22173A",
    "EPOCH": "2023-05-25 13:24:15",
    "EPOCH_MICROSECONDS": "954336",
    "MEAN_MOTION": "14.09852294",
    "ECCENTRICITY": "0.0001014",
    "INCLINATION": "77.6066",
    "RA_OF_ASC_NODE": "106.3888",
    "ARG_OF_PERICENTER": "193.4532",
    "MEAN_ANOMALY": "166.6598",
    "EPHEMERIS_TYPE": "0",
    "ELEMENT_SET_NO": "999",
    "REV_AT_EPOCH": "2255",
    "BSTAR": "0.0001374",
    "MEAN_MOTION_DOT": "0.00000239",
    "MEAN_MOTION_DDOT": "0",
    "FILE": "3916775",
    "TLE_LINE0": "0 SWOT",
    "TLE_LINE1": "1 54754U 22173A   23145.55851799  .00000239  00000-0  13740-3 0  9996",
    "TLE_LINE2": "2 54754  77.6066 106.3888 0001014 193.4532 166.6598 14.09852294 22555",
    "OBJECT_ID": "2022-173A",
    "OBJECT_NUMBER": "54754",
    "SEMIMAJOR_AXIS": "7238.014",
    "PERIOD": "102.138",
    "APOGEE": "860.613",
    "PERIGEE": "859.145",
    "DECAYED": "0"
  },
  {
    "COMMENT": "GENERATED VIA SPACETRACK.ORG API",
    "ORIGINATOR": "18 SPCS",
    "NORAD_CAT_ID": "54754",
    "OBJECT_NAME": "SWOT",
    "OBJECT_TYPE": "PAYLOAD",
    "CLASSIFICATION_TYPE": "U",
    "INTLDES": "22173A",
    "EPOCH": "2023-05-25 16:48:38",
    "EPOCH_MICROSECONDS": "510208",
    "MEAN_MOTION": "14.09852373",
    "ECCENTRICITY": "0.0001015",
    "INCLINATION": "77.6066",
    "RA_OF_ASC_NODE": "106.1941",
    "ARG_OF_PERICENTER": "193.1879",
    "MEAN_ANOMALY": "166.9251",
    "EPHEMERIS_TYPE": "0",
    "ELEMENT_SET_NO": "999",
    "REV_AT_EPOCH": "2257",
    "BSTAR": "0.00014008",
    "MEAN_MOTION_DOT": "0.00000244",
    "MEAN_MOTION_DDOT": "0",
    "FILE": "3917071",
    "TLE_LINE0": "0 SWOT",
    "TLE_LINE1": "1 54754U 22173A   23145.70044572  .00000244  00000-0  14008-3 0  9990",
    "TLE_LINE2": "2 54754  77.6066 106.1941 0001015 193.1879 166.9251 14.09852373 22574",
    "OBJECT_ID": "2022-173A",
    "OBJECT_NUMBER": "54754",
    "SEMIMAJOR_AXIS": "7238.014",
    "PERIOD": "102.138",
    "APOGEE": "860.614",
    "PERIGEE": "859.144",
    "DECAYED": "0"
  },
  {
    "COMMENT": "GENERATED VIA SPACETRACK.ORG API",
    "ORIGINATOR": "18 SPCS",
    "NORAD_CAT_ID": "54754",
    "OBJECT_NAME": "SWOT",
    "OBJECT_TYPE": "PAYLOAD",
    "CLASSIFICATION_TYPE": "U",
    "INTLDES": "22173A",
    "EPOCH": "2023-05-25 21:55:12",
    "EPOCH_MICROSECONDS": "341856",
    "MEAN_MOTION": "14.09852464",
    "ECCENTRICITY": "0.0001013",
    "INCLINATION": "77.6066",
    "RA_OF_ASC_NODE": "105.902",
    "ARG_OF_PERICENTER": "192.9858",
    "MEAN_ANOMALY": "167.1273",
    "EPHEMERIS_TYPE": "0",
    "ELEMENT_SET_NO": "999",
    "REV_AT_EPOCH": "2260",
    "BSTAR": "0.00013726",
    "MEAN_MOTION_DOT": "0.00000239",
    "MEAN_MOTION_DDOT": "0",
    "FILE": "3917122",
    "TLE_LINE0": "0 SWOT",
    "TLE_LINE1": "1 54754U 22173A   23145.91333729  .00000239  00000-0  13726-3 0  9998",
    "TLE_LINE2": "2 54754  77.6066 105.9020 0001013 192.9858 167.1273 14.09852464 22603",
    "OBJECT_ID": "2022-173A",
    "OBJECT_NUMBER": "54754",
    "SEMIMAJOR_AXIS": "7238.014",
    "PERIOD": "102.138",
    "APOGEE": "860.612",
    "PERIGEE": "859.145",
    "DECAYED": "0"
  },
  {
    "COMMENT": "GENERATED VIA SPACETRACK.ORG API",
    "ORIGINATOR": "18 SPCS",
    "NORAD_CAT_ID": "54754",
    "OBJECT_NAME": "SWOT",
    "OBJECT_TYPE": "PAYLOAD",
    "CLASSIFICATION_TYPE": "U",
    "INTLDES": "22173A",
    "EPOCH": "2023-05-26 13:14:53",
    "EPOCH_MICROSECONDS": "832480",
    "MEAN_MOTION": "14.09852718",
    "ECCENTRICITY": "0.0001002",
    "INCLINATION": "77.6067",
    "RA_OF_ASC_NODE": "105.0257",
    "ARG_OF_PERICENTER": "193.1577",
    "MEAN_ANOMALY": "166.9554",
    "EPHEMERIS_TYPE": "0",
    "ELEMENT_SET_NO": "999",
    "REV_AT_EPOCH": "2269",
    "BSTAR": "0.00013269",
    "MEAN_MOTION_DOT": "0.00000231",
    "MEAN_MOTION_DDOT": "0",
    "FILE": "3917630",
    "TLE_LINE0": "0 SWOT",
    "TLE_LINE1": "1 54754U 22173A   23146.55201195  .00000231  00000-0  13269-3 0  9994",
    "TLE_LINE2": "2 54754  77.6067 105.0257 0001002 193.1577 166.9554 14.09852718 22696",
    "OBJECT_ID": "2022-173A",
    "OBJECT_NUMBER": "54754",
    "SEMIMAJOR_AXIS": "7238.013",
    "PERIOD": "102.138",
    "APOGEE": "860.603",
    "PERIGEE": "859.153",
    "DECAYED": "0"
  }
]